EPOCH,NORAD_CAT_ID,MEAN_MOTION,ECCENTRICITY,INCLINATION,RA_OF_ASC_NODE,ARG_OF_PERICENTER,MEAN_ANOMALY,MEAN_MOTION_DOT,BSTAR,TLE_LINE1,TLE_LINE2
2023-10-05 03:56:09,50803,15.08873041,0.0001283,53.215,188.8869,87.1207,272.9931,0.0002436,0.001542,1 50803U 22001A   23278.16400282  .00024360  00000-0  15420-2 0  9995,2 50803  53.2150 188.8869 0001283  87.1207 272.9931 15.08873041 97849
2023-10-05 23:00:47,50803,15.08851657,0.0001542,53.2151,185.3185,109.8282,250.2877,0.00008,0.00051999,1 50803U 22001A   23278.95888552  .00008000  00000-0  51999-3 0  9997,2 50803  53.2151 185.3185 0001542 109.8282 250.2877 15.08851657 96695
2023-10-06 00:36:10,50803,15.08852131,0.0001365,53.2151,185.0219,93.5215,266.5933,0.00009939,0.00064144,1 50803U 22001A   23279.02512631  .00009939  00000-0  64144-3 0  9996,2 50803  53.2151 185.0219 0001365  93.5215 266.5933 15.08852131 97971
2023-10-06 03:46:57,50803,15.0884995,0.0001456,53.216,184.4264,95.1069,265.009,0.00008247,0.00053551,1 50803U 22001A   23279.15760606  .00008247  00000-0  53551-3 0  9998,2 50803  53.2160 184.4264 0001456  95.1069 265.0090 15.08849950 96725
2023-10-06 21:16:12,50803,15.08838088,0.0001633,53.2163,181.1549,106.1172,254,0.00005396,0.00035685,1 50803U 22001A   23279.88625513  .00005396  00000-0  35685-3 0  9995,2 50803  53.2163 181.1549 0001633 106.1172 254.0000 15.08838088 96834
2023-10-07 00:26:58,50803,15.08836592,0.0001422,53.2156,180.5617,87.2185,272.897,0.00020623,0.0013102,1 50803U 22001A   23280.01873783  .00020623  00000-0  13102-2 0  9995,2 50803  53.2156 180.5617 0001422  87.2185 272.8970 15.08836592 98120
2023-10-07 13:10:04,50803,15.08842285,0.0001615,53.2159,178.1853,92.7066,267.4111,0.000115,0.0007394,1 50803U 22001A   23280.54865876  .00011500  00000-0  73940-3 0  9998,2 50803  53.2159 178.1853 0001615  92.7066 267.4111 15.08842285 96931
2023-10-07 13:10:04,50803,15.08842285,0.0001615,53.2159,178.1853,92.7066,267.4111,0.000115,0.0007394,1 50803U 22001A   23280.54865876  .00011500  00000-0  73940-3 0  9998,2 50803  53.2159 178.1853 0001615  92.7066 267.4111 15.08842285 98203
2023-10-07 22:42:22,50803,15.08841765,0.000139,53.2159,176.3996,89.7257,270.3895,0.00016297,0.0010396,1 50803U 22001A   23280.94609877  .00016297  00000-0  10396-2 0  9992,2 50803  53.2159 176.3996 0001390  89.7257 270.3895 15.08841765 96997
2023-10-08 09:50:04,50803,15.08858888,0.0001413,53.2167,174.3167,82.9093,277.2059,0.00018162,0.0011557,1 50803U 22001A   23281.40977597  .00018162  00000-0  11557-2 0  9994,2 50803  53.2167 174.3167 0001413  82.9093 277.2059 15.08858888 97064
2023-10-08 17:47:00,50803,15.08849325,0.0001466,53.2162,172.8313,94.9491,265.1669,0.00007982,0.0005189,1 50803U 22001A   23281.74097522  .00007982  00000-0  51890-3 0  9995,2 50803  53.2162 172.8313 0001466  94.9491 265.1669 15.08849325 98383
2023-10-08 20:57:46,50803,15.08855364,0.0001333,53.2163,172.2385,104.7788,255.3351,0.00009677,0.00062499,1 50803U 22001A   23281.87345303  .00009677  00000-0  62499-3 0  9992,2 50803  53.2163 172.2385 0001333 104.7788 255.3351 15.08855364 97130
2023-10-09 00:08:32,50803,15.08862137,0.0001465,53.2163,171.6423,97.6936,262.4223,0.00012119,0.00077773,1 50803U 22001A   23282.00593102  .00012119  00000-0  77773-3 0  9996,2 50803  53.2163 171.6423 0001465  97.6936 262.4223 15.08862137 98423
2023-10-09 09:40:51,50803,15.08854579,0.0001433,53.2158,169.8593,80.5149,279.6005,0.00006904,0.00045126,1 50803U 22001A   23282.40337048  .00006904  00000-0  45126-3 0  9997,2 50803  53.2158 169.8593 0001433  80.5149 279.6005 15.08854579 97211
2023-10-09 09:40:51,50803,15.08854579,0.0001433,53.2158,169.8593,80.5149,279.6005,0.00006904,0.00045126,1 50803U 22001A   23282.40337048  .00006904  00000-0  45126-3 0  9997,2 50803  53.2158 169.8593 0001433  80.5149 279.6005 15.08854579 98481
2023-10-09 20:48:33,50803,15.08836128,0.000113,53.2155,167.7762,86.4234,273.6887,-0.00000006,0.000017677,1 50803U 22001A   23282.86705418 -.00000006  00000-0  17677-4 0  9996,2 50803  53.2155 167.7762 0001130  86.4234 273.6887 15.08836128 97286
2023-10-10 01:34:43,50803,15.08847218,0.0001308,53.2157,166.884,80.5654,279.5486,0.00037585,0.0023666,1 50803U 22001A   23283.06577596  .00037585  00000-0  23666-2 0  9997,2 50803  53.2157 166.8840 0001308  80.5654 279.5486 15.08847218 98589
2023-10-10 09:31:38,50803,15.08844963,0.0001157,53.2158,165.397,92.5994,267.5131,0.00017947,0.0011427,1 50803U 22001A   23283.39697661  .00017947  00000-0  11427-2 0  9991,2 50803  53.2158 165.3970 0001157  92.5994 267.5131 15.08844963 98634
2023-10-10 09:31:38,50803,15.08844963,0.0001157,53.2158,165.397,92.5994,267.5131,0.00017947,0.0011427,1 50803U 22001A   23283.39697661  .00017947  00000-0  11427-2 0  9991,2 50803  53.2158 165.3970 0001157  92.5994 267.5131 15.08844963 97363
2023-10-10 20:39:20,50803,15.08843197,0.0001054,53.2161,163.316,98.7549,261.3563,0.0001511,0.00096536,1 50803U 22001A   23283.86065766  .00015110  00000-0  96536-3 0  9993,2 50803  53.2161 163.3160 0001054  98.7549 261.3563 15.08843197 97433
2023-10-11 01:25:29,50803,15.08857677,0.0001298,53.2157,162.4218,97.5708,262.5432,0.00014997,0.00095789,1 50803U 22001A   23284.05937461  .00014997  00000-0  95789-3 0  9996,2 50803  53.2157 162.4218 0001298  97.5708 262.5432 15.08857677 98736
2023-10-11 09:22:26,50803,15.08840368,0.0001647,53.2159,160.9372,86.6274,273.4906,0.00005084,0.00033729,1 50803U 22001A   23284.39057970  .00005084  00000-0  33729-3 0  9994,2 50803  53.2159 160.9372 0001647  86.6274 273.4906 15.08840368 97518
2023-10-11 09:22:26,50803,15.08840368,0.0001647,53.2159,160.9372,86.6274,273.4906,0.00005084,0.00033729,1 50803U 22001A   23284.39057970  .00005084  00000-0  33729-3 0  9994,2 50803  53.2159 160.9372 0001647  86.6274 273.4906 15.08840368 98788
2023-10-12 09:13:13,50803,15.0884262,0.000164,53.2169,156.4733,98.9321,261.1856,0.0000463,0.00030878,1 50803U 22001A   23285.38418093  .00004630  00000-0  30878-3 0  9999,2 50803  53.2169 156.4733 0001640  98.9321 261.1856 15.08842620 98930
2023-10-12 09:13:13,50803,15.0884262,0.000164,53.2169,156.4733,98.9321,261.1856,0.0000463,0.00030878,1 50803U 22001A   23285.38418093  .00004630  00000-0  30878-3 0  9999,2 50803  53.2169 156.4733 0001640  98.9321 261.1856 15.08842620 97669
2023-10-12 21:56:18,50803,15.08852721,0.000165,53.2169,154.0942,98.6832,261.4347,0.00006343,0.00041611,1 50803U 22001A   23285.91409755  .00006343  00000-0  41611-3 0  9993,2 50803  53.2169 154.0942 0001650  98.6832 261.4347 15.08852721 97740
2023-10-13 01:07:04,50803,15.08856031,0.0001697,53.2169,153.4987,102.2042,257.914,0.00007639,0.00049729,1 50803U 22001A   23286.04657601  .00007639  00000-0  49729-3 0  9990,2 50803  53.2169 153.4987 0001697 102.2042 257.9140 15.08856031 97769
2023-10-13 18:36:18,50803,15.08848477,0.0001624,53.2164,150.2286,102.2381,257.8793,0.00004086,0.0002746,1 50803U 22001A   23286.77521787  .00004086  00000-0  27460-3 0  9996,2 50803  53.2164 150.2286 0001624 102.2381 257.8793 15.08848477 99149
2023-10-13 21:47:05,50803,15.08854563,0.0001422,53.2167,149.6351,84.1424,275.973,0.00007798,0.00050728,1 50803U 22001A   23286.90769678  .00007798  00000-0  50728-3 0  9990,2 50803  53.2167 149.6351 0001422  84.1424 275.9730 15.08854563 97894
2023-10-14 00:57:51,50803,15.08859258,0.0001456,53.2165,149.0405,84.3232,275.7926,0.00009949,0.00064194,1 50803U 22001A   23287.04017520  .00009949  00000-0  64194-3 0  9990,2 50803  53.2165 149.0405 0001456  84.3232 275.7926 15.08859258 99187
2023-10-14 00:57:51,50803,15.08859258,0.0001456,53.2165,149.0405,84.3232,275.7926,0.00009949,0.00064194,1 50803U 22001A   23287.04017520  .00009949  00000-0  64194-3 0  9990,2 50803  53.2165 149.0405 0001456  84.3232 275.7926 15.08859258 97916
2023-10-14 20:02:29,50803,15.08843023,0.0001375,53.2166,145.4719,98.1963,261.9185,0.00006034,0.00039683,1 50803U 22001A   23287.83505815  .00006034  00000-0  39683-3 0  9993,2 50803  53.2166 145.4719 0001375  98.1963 261.9185 15.08843023 99301
2023-10-14 21:37:52,50803,15.08843844,0.0001284,53.2162,145.1758,89.5645,270.5495,0.00013842,0.00088596,1 50803U 22001A   23287.90129967  .00013842  00000-0  88596-3 0  9993,2 50803  53.2162 145.1758 0001284  89.5645 270.5495 15.08843844 98048
2023-10-15 15:07:06,50803,15.08835461,0.0001378,53.2147,141.9064,96.8238,263.2911,0.00000461,0.000047081,1 50803U 22001A   23288.62994192  .00000461  00000-0  47081-4 0  9991,2 50803  53.2147 141.9064 0001378  96.8238 263.2911 15.08835461 98158
2023-10-15 21:28:39,50803,15.08838034,0.0001305,53.2146,140.7168,94.8347,265.2794,0.00000426,0.00004487,1 50803U 22001A   23288.89490231  .00000426  00000-0  44870-4 0  9999,2 50803  53.2146 140.7168 0001305  94.8347 265.2794 15.08838034 99463
2023-10-16 14:57:54,50803,15.08842974,0.0001221,53.2149,137.4449,89.4014,270.7118,0.00002812,0.00019467,1 50803U 22001A   23289.62354214  .00002812  00000-0  19467-3 0  9995,2 50803  53.2149 137.4449 0001221  89.4014 270.7118 15.08842974 98300
2023-10-16 16:33:17,50803,15.08843752,0.0001218,53.2148,137.1475,88.8328,271.2804,0.00003179,0.00021773,1 50803U 22001A   23289.68978214  .00003179  00000-0  21773-3 0  9993,2 50803  53.2148 137.1475 0001218  88.8328 271.2804 15.08843752 98316
2023-10-17 00:30:12,50803,15.0885406,0.0001208,53.2144,135.6604,89.1706,270.9425,0.00007547,0.00049156,1 50803U 22001A   23290.02097891  .00007547  00000-0  49156-3 0  9994,2 50803  53.2144 135.6604 0001208  89.1706 270.9425 15.08854060 99637
2023-10-17 00:30:12,50803,15.0885406,0.0001208,53.2144,135.6604,89.1706,270.9425,0.00007547,0.00049156,1 50803U 22001A   23290.02097891  .00007547  00000-0  49156-3 0  9994,2 50803  53.2144 135.6604 0001208  89.1706 270.9425 15.08854060 98366
2023-10-17 16:24:03,50803,15.08845502,0.0002468,53.2128,132.6826,165.2739,194.8326,0.00000863,0.00007231,1 50803U 22001A   23290.68337331  .00000863  00000-0  72310-4 0  9995,2 50803  53.2128 132.6826 0002468 165.2739 194.8326 15.08845502 99739
